NORAD_CAT_ID,OBJECT_NAME,OBJECT_TYPE,EPOCH,MEAN_MOTION,ECCENTRICITY,INCLINATION,RA_OF_ASC_NODE,ARG_OF_PERICENTER,MEAN_ANOMALY,BSTAR,MEAN_MOTION_DOT,MEAN_MOTION_DDOT,TLE_LINE0,TLE_LINE1,TLE_LINE2,SEMIMAJOR_AXIS,PERIOD,APOGEE,PERIGEE,DECAYED
53610.0,STARLINK-4610,PAYLOAD,2024-05-22 10:50:36,15.08838705,0.0001634,53.2166,300.2058,109.9648,250.152,0.00014273,1.984e-05,0.0,0 STARLINK-4610,1 53610U 22104Y   24143.45181213  .00001984  00000-0  14273-3 0  9995,2 53610  53.2166 300.2058 0001634 109.9648 250.1520 15.08838705 95991,6917.884,95.438,540.88,538.619,0.0
53610.0,STARLINK-4610,PAYLOAD,2024-05-22 20:22:55,15.08838326,0.0001708,53.2164,298.4228,107.9509,252.1669,0.00032684,4.917e-05,0.0,0 STARLINK-4610,1 53610U 22104Y   24143.84925498  .00004917  00000-0  32684-3 0  9994,2 53610  53.2164 298.4228 0001708 107.9509 252.1669 15.08838326 96628,6917.886,95.438,540.932,538.569,0.0
53610.0,STARLINK-4610,PAYLOAD,2024-05-23 10:41:24,15.08835947,0.000204,53.2175,295.7464,108.4367,251.6847,0.00020982,3.052e-05,0.0,0 STARLINK-4610,1 53610U 22104Y   24144.44541963  .00003052  00000-0  20982-3 0  9999,2 53610  53.2175 295.7464 0002040 108.4367 251.6847 15.08835947 96145,6917.893,95.438,541.169,538.347,0.0
53610.0,STARLINK-4610,PAYLOAD,2024-05-23 13:52:10,15.08841044,0.0001913,53.2167,295.1503,121.2185,238.8994,8.0285e-05,9.9e-06,0.0,0 STARLINK-4610,1 53610U 22104Y   24144.57789579  .00000990  00000-0  80285-4 0  9991,2 53610  53.2167 295.1503 0001913 121.2185 238.8994 15.08841044 96733,6917.877,95.437,541.066,538.419,0.0
53610.0,STARLINK-4610,PAYLOAD,2024-05-23 15:27:33,15.08841633,0.0001901,53.2172,294.8531,118.1993,241.9191,0.0001035,1.36e-05,0.0,0 STARLINK-4610,1 53610U 22104Y   24144.64413588  .00001360  00000-0  10350-3 0  9990,2 53610  53.2172 294.8531 0001901 118.1993 241.9191 15.08841633 96744,6917.875,95.437,541.055,538.425,0.0
53610.0,STARLINK-4610,PAYLOAD,2024-05-24 13:42:57,15.08842768,0.000154,53.2151,290.6883,130.9105,229.2021,0.00019542,2.824e-05,0.0,0 STARLINK-4610,1 53610U 22104Y   24145.57149537  .00002824  00000-0  19542-3 0  9991,2 53610  53.2151 290.6883 0001540 130.9105 229.2021 15.08842768 96887,6917.872,95.437,540.802,538.672,0.0
53610.0,STARLINK-4610,PAYLOAD,2024-05-24 18:29:07,15.08830285,0.0001247,53.2162,289.8019,102.0154,258.0978,-6.7991e-05,-1.369e-05,0.0,0 STARLINK-4610,1 53610U 22104Y   24145.77022102 -.00001369  00000-0 -67991-4 0  9998,2 53610  53.2162 289.8019 0001247 102.0154 258.0978 15.08830285 96341,6917.91,95.438,540.638,538.912,0.0
53610.0,STARLINK-4610,PAYLOAD,2024-05-25 13:33:44,15.08835432,9.32e-05,53.2165,286.2344,100.6738,259.4359,2.5327e-05,1.15e-06,0.0,0 STARLINK-4610,1 53610U 22104Y   24146.56510357  .00000115  00000-0  25327-4 0  9993,2 53610  53.2165 286.2344 0000932 100.6738 259.4359 15.08835432 97032,6917.894,95.438,540.404,539.115,0.0
53610.0,STARLINK-4610,PAYLOAD,2024-05-25 18:19:54,15.08848006,9.56e-05,53.2168,285.3423,93.4045,266.7057,0.00029371,4.391e-05,0.0,0 STARLINK-4610,1 53610U 22104Y   24146.76382057  .00004391  00000-0  29371-3 0  9991,2 53610  53.2168 285.3423 0000956  93.4045 266.7057 15.08848006 96495,6917.856,95.437,540.382,539.06,0.0
53610.0,STARLINK-4610,PAYLOAD,2024-05-26 02:16:45,15.08923609,0.0006318,53.2152,283.8537,256.5065,103.5223,0.0015663,0.00024793,0.0,0 STARLINK-4610,1 53610U 22104Y   24147.09496575  .00024793  00000-0  15663-2 0  9995,2 53610  53.2152 283.8537 0006318 256.5065 103.5223 15.08923609 96541,6917.625,95.432,543.86,535.119,0.0
53610.0,STARLINK-4610,PAYLOAD,2024-05-26 14:00:01,15.08862947,0.0001078,53.2168,281.6625,96.0156,38.0604,-0.0031469,-0.00050053,0.0,0 STARLINK-4610,1 53610U 22104Y   24147.58334491 -.00050053  00000-0 -31469-2 0  9999,2 53610  53.2168 281.6625 0001078  96.0156  38.0604 15.08862947 96618,6917.81,95.436,540.421,538.93,0.0
53610.0,STARLINK-4610,PAYLOAD,2024-05-26 16:35:17,15.0885067,8.83e-05,53.2172,281.1783,96.8692,263.2401,0.00038171,5.794e-05,0.0,0 STARLINK-4610,1 53610U 22104Y   24147.69117701  .00005794  00000-0  38171-3 0  9992,2 53610  53.2172 281.1783 0000883  96.8692 263.2401 15.08850670 97202,6917.848,95.437,540.324,539.102,0.0
53610.0,STARLINK-4610,PAYLOAD,2024-05-27 13:15:18,15.08847883,9.11e-05,53.2178,277.3124,110.8578,249.2512,3.9093e-05,3.35e-06,0.0,0 STARLINK-4610,1 53610U 22104Y   24148.55229619  .00000335  00000-0  39093-4 0  9991,2 53610  53.2178 277.3124 0000911 110.8578 249.2512 15.08847883 96765,6917.856,95.437,540.352,539.091,0.0
53610.0,STARLINK-4610,PAYLOAD,2024-05-27 14:50:41,15.08848726,0.0001045,53.218,277.0163,82.6372,277.4739,5.6821e-05,6.17e-06,0.0,0 STARLINK-4610,1 53610U 22104Y   24148.61853668  .00000617  00000-0  56821-4 0  9996,2 53610  53.2180 277.0163 0001045  82.6372 277.4739 15.08848726 97341,6917.854,95.437,540.442,538.996,0.0
53610.0,STARLINK-4610,PAYLOAD,2024-05-27 18:01:27,15.08852161,0.0001028,53.2184,276.4186,87.393,272.718,0.00010319,1.355e-05,0.0,0 STARLINK-4610,1 53610U 22104Y   24148.75101391  .00001355  00000-0  10319-3 0  9991,2 53610  53.2184 276.4186 0001028  87.3930 272.7180 15.08852161 97364,6917.843,95.437,540.419,538.997,0.0
53610.0,STARLINK-4610,PAYLOAD,2024-05-28 14:41:28,15.08846798,0.0001347,53.218,272.56,71.4258,288.688,6.4303e-05,7.36e-06,0.0,0 STARLINK-4610,1 53610U 22104Y   24149.61213602  .00000736  00000-0  64303-4 0  9991,2 53610  53.2180 272.5600 0001347  71.4258 288.6880 15.08846798 97495,6917.86,95.437,540.656,538.793,0.0
53610.0,STARLINK-4610,PAYLOAD,2024-05-29 12:56:53,15.08799932,0.0001894,53.2193,268.3955,137.7698,222.344,0.00055301,8.515e-05,0.0,0 STARLINK-4610,1 53610U 22104Y   24150.53950724  .00008515  00000-0  55301-3 0  9997,2 53610  53.2193 268.3955 0001894 137.7698 222.3440 15.08799932 97063,6918.003,95.44,541.178,538.558,0.0
53610.0,STARLINK-4610,PAYLOAD,2024-05-29 14:32:15,15.08842312,0.0001019,53.2186,268.0988,94.6521,265.4588,-6.4561e-05,-1.315e-05,0.0,0 STARLINK-4610,1 53610U 22104Y   24150.60574019 -.00001315  00000-0 -64561-4 0  9996,2 53610  53.2186 268.0988 0001019  94.6521 265.4588 15.08842312 97649,6917.873,95.437,540.443,539.033,0.0
53610.0,STARLINK-4610,PAYLOAD,2024-05-29 17:43:02,15.0883974,0.0001035,53.218,267.5019,116.724,243.3858,1.5896e-05,-3.5e-07,0.0,0 STARLINK-4610,1 53610U 22104Y   24150.73821847 -.00000035  00000-0  15896-4 0  9998,2 53610  53.2180 267.5019 0001035 116.7240 243.3858 15.08839740 97099,6917.881,95.438,540.462,539.03,0.0
53610.0,STARLINK-4610,PAYLOAD,2024-05-30 12:47:39,15.08845469,0.0001108,53.2178,263.9338,90.7576,269.3543,9.3781e-05,1.205e-05,0.0,0 STARLINK-4610,1 53610U 22104Y   24151.53309434  .00001205  00000-0  93781-4 0  9998,2 53610  53.2178 263.9338 0001108  90.7576 269.3543 15.08845469 97784,6917.864,95.437,540.495,538.962,0.0
53610.0,STARLINK-4610,PAYLOAD,2024-05-30 17:33:48,15.08849943,0.0001197,53.2181,263.0408,104.0772,256.0353,0.00012401,1.687e-05,0.0,0 STARLINK-4610,1 53610U 22104Y   24151.73180960  .00001687  00000-0  12401-3 0  9994,2 53610  53.2181 263.0408 0001197 104.0772 256.0353 15.08849943 97246,6917.85,95.437,540.543,538.887,0.0
53610.0,STARLINK-4610,PAYLOAD,2024-05-31 12:38:26,15.08839204,0.0001117,53.2182,259.4735,83.5507,276.5612,0.00010622,1.403e-05,0.0,0 STARLINK-4610,1 53610U 22104Y   24152.52670010  .00001403  00000-0  10622-3 0  9991,2 53610  53.2182 259.4735 0001117  83.5507 276.5612 15.08839204 97365,6917.883,95.438,540.521,538.975,0.0
53610.0,STARLINK-4610,PAYLOAD,2024-05-31 14:13:49,15.08841673,0.0001138,53.2182,259.1758,89.1678,270.9444,0.00013257,1.823e-05,0.0,0 STARLINK-4610,1 53610U 22104Y   24152.59293867  .00001823  00000-0  13257-3 0  9992,2 53610  53.2182 259.1758 0001138  89.1678 270.9444 15.08841673 97949,6917.875,95.437,540.528,538.953,0.0
53610.0,STARLINK-4610,PAYLOAD,2024-06-01 12:29:14,15.08836486,0.0001394,53.2196,255.0143,103.4587,256.6561,-2.3141e-05,-6.56e-06,0.0,0 STARLINK-4610,1 53610U 22104Y   24153.52030550 -.00000656  00000-0 -23141-4 0  9993,2 53610  53.2196 255.0143 0001394 103.4587 256.6561 15.08836486 97510,6917.891,95.438,540.72,538.792,0.0
53610.0,STARLINK-4610,PAYLOAD,2024-06-01 14:04:37,15.08839659,0.0001237,53.2184,254.7169,107.1034,253.0093,7.531e-06,-1.68e-06,0.0,0 STARLINK-4610,1 53610U 22104Y   24153.58654232 -.00000168  00000-0  75310-5 0  9991,2 53610  53.2184 254.7169 0001237 107.1034 253.0093 15.08839659 98095,6917.881,95.438,540.602,538.891,0.0
53610.0,STARLINK-4610,PAYLOAD,2024-06-02 12:20:02,15.08830371,0.0001069,53.2172,250.5525,79.3715,280.7397,-1.9011e-05,-5.9e-06,0.0,0 STARLINK-4610,1 53610U 22104Y   24154.51391379 -.00000590  00000-0 -19011-4 0  9990,2 53610  53.2172 250.5525 0001069  79.3715 280.7397 15.08830371 98233,6917.91,95.438,540.514,539.035,0.0
53610.0,STARLINK-4610,PAYLOAD,2024-06-02 15:30:48,15.0883289,0.0001114,53.2176,249.9576,82.133,277.9789,1.2412e-05,-9e-07,0.0,0 STARLINK-4610,1 53610U 22104Y   24154.64639203 -.00000090  00000-0  12412-4 0  9997,2 53610  53.2176 249.9576 0001114  82.1330 277.9789 15.08832890 97680,6917.902,95.438,540.538,538.996,0.0
53610.0,STARLINK-4610,PAYLOAD,2024-06-02 23:27:43,15.08839376,0.0001249,53.2181,248.4726,82.8889,277.2246,3.665e-05,2.95e-06,0.0,0 STARLINK-4610,1 53610U 22104Y   24154.97758783  .00000295  00000-0  36650-4 0  9994,2 53610  53.2181 248.4726 0001249  82.8889 277.2246 15.08839376 97735,6917.882,95.438,540.611,538.883,0.0
53610.0,STARLINK-4610,PAYLOAD,2024-06-03 12:10:48,15.08848054,0.0001136,53.2173,246.0938,84.3942,275.7179,0.0001631,2.309e-05,0.0,0 STARLINK-4610,1 53610U 22104Y   24155.50750109  .00002309  00000-0  16310-3 0  9996,2 53610  53.2173 246.0938 0001136  84.3942 275.7179 15.08848054 97817,6917.856,95.437,540.507,538.935,0.0
53610.0,STARLINK-4610,PAYLOAD,2024-06-03 15:21:33,15.08853452,0.0001203,53.2176,245.4989,91.5162,268.5968,0.00022165,3.243e-05,0.0,0 STARLINK-4610,1 53610U 22104Y   24155.63997649  .00003243  00000-0  22165-3 0  9995,2 53610  53.2176 245.4989 0001203  91.5162 268.5968 15.08853452 98408,6917.839,95.437,540.536,538.872,0.0
